O3B MPOWER F1
1 54755U 22174A   25304.81619103 -.00000012  00000+0  00000+0 0  9997
2 54755   0.0621   7.0091 0004052 220.6049  40.7041  5.00115887 53939
O3B MPOWER F4
1 56367U 23059A   25304.30043615 -.00000013  00000+0  00000+0 0  9995
2 56367   0.0464  14.3221 0005177 221.6285 124.0077  5.00114451 47151
O3B MPOWER F5
1 58346U 23175A   25304.43366370 -.00000012  00000+0  00000+0 0  9992
2 58346   0.0443 346.2028 0004608 219.6593 154.1223  5.00115130 37999
O3B MPOWER F6
1 58347U 23175B   25304.53364156 -.00000012  00000+0  00000+0 0  9994
2 58347   0.0450 356.3760 0006754 209.5966 154.0008  5.00114892 36914
O3B MPOWER F7
1 62362U 24244A   25304.60050212 -.00000012  00000+0  00000+0 0  9997
2 62362   0.0522  21.4365 0006054 201.0658 137.4583  5.00115394 15092
O3B MPOWER F8
1 62363U 24244B   25304.56767013 -.00000012  00000+0  00000+0 0  9997
2 62363   0.0820 342.5037 0006936 239.2979 138.1528  5.00116245  9439
